ONEWEB-0431             
1 51630U 22012J   23321.49994838  .00000524  00000+0  14657-2 0  9992
2 51630  87.8935 223.4864 0001195  94.7699 265.3565 13.10370876 85883
ONEWEB-0434             
1 51631U 22012K   23321.47733217 -.00001525  00000+0 -44036-2 0  9991
2 51631  87.8930 223.4949 0002268  47.7128 312.4192 13.10386480 85866
ONEWEB-0435             
1 51632U 22012L   23321.48545211  .00000496  00000+0  13832-2 0  9992
2 51632  87.8933 223.4828 0001319  62.0587 298.0674 13.10376630 85850
ONEWEB-0436             
1 51633U 22012M   23321.16150013  .00000102  00000+0  23081-3 0  9992
2 51633  87.9230 193.3112 0001424  69.9676 290.1609 13.17650174 89495
ONEWEB-0438             
1 51634U 22012N   23321.46919209 -.00000501  00000+0 -14716-2 0  9995
2 51634  87.8933 223.4872 0001830  67.4660 292.6661 13.10373240 85883
ONEWEB-0439             
1 51635U 22012P   23321.47246412 -.00000120  00000+0 -38101-3 0  9998
2 51635  87.8933 223.4694 0001632  71.9125 288.2180 13.10376889 85869
ONEWEB-0442             
1 51636U 22012Q   23321.60867656  .00000031  00000+0  45908-4 0  9996
2 51636  87.9235 193.2490 0002361  89.2121 270.9281 13.17647134 89542
ONEWEB-0443             
1 51637U 22012R   23321.39987115 -.00000109  00000+0 -31412-3 0  9998
2 51637  87.9234 193.2956 0001529  55.6991 304.4285 13.17648844 89564
